CSS (TIANHE)            
1 48274U 21035A   24279.82547108  .00042055  00000+0  43425-3 0  9991
2 48274  41.4655 128.3806 0002889 127.7795 232.3307 15.63985405196401
